NORAD_CAT_ID,OBJECT_NAME,OBJECT_TYPE,EPOCH,MEAN_MOTION,ECCENTRICITY,INCLINATION,RA_OF_ASC_NODE,ARG_OF_PERICENTER,MEAN_ANOMALY,BSTAR,MEAN_MOTION_DOT,MEAN_MOTION_DDOT,TLE_LINE0,TLE_LINE1,TLE_LINE2,SEMIMAJOR_AXIS,PERIOD,APOGEE,PERIGEE,DECAYED
55655.0,STARLINK-5267,PAYLOAD,2023-03-30 05:56:55,15.69933079,0.0003637,70.0013,36.123,262.8491,97.2291,4.7174e-05,5.465e-05,0.0,0 STARLINK-5267,1 55655U 23021AD  23089.24786407  .00005465  00000-0  47174-4 0  9991,2 55655  70.0013  36.1230 0003637 262.8491  97.2291 15.69933079  6890,6737.225,91.724,361.541,356.64,0.0
55655.0,STARLINK-5267,PAYLOAD,2023-03-30 22:46:11,15.69926652,0.0003189,70.001,34.15,265.0533,95.0299,5.8212e-05,6.793e-05,0.0,0 STARLINK-5267,1 55655U 23021AD  23089.94874888  .00006793  00000-0  58212-4 0  9999,2 55655  70.0010  34.1500 0003189 265.0533  95.0299 15.69926652  7006,6737.244,91.724,361.257,356.96,0.0
55655.0,STARLINK-5267,PAYLOAD,2023-03-31 06:24:57,15.69912792,0.0003322,70.0021,33.2552,279.0752,81.0068,-3.649e-05,-4.596e-05,0.0,0 STARLINK-5267,1 55655U 23021AD  23090.26733561 -.00004596  00000-0 -36490-4 0  9993,2 55655  70.0021  33.2552 0003322 279.0752  81.0068 15.69912792  7056,6737.283,91.725,361.387,356.91,0.0
55655.0,STARLINK-5267,PAYLOAD,2023-04-01 05:21:14,15.69926361,0.000355,70.0016,30.5687,271.6304,88.4485,4.8867e-05,5.668e-05,0.0,0 STARLINK-5267,1 55655U 23021AD  23091.22308697  .00005668  00000-0  48867-4 0  9998,2 55655  70.0016  30.5687 0003550 271.6304  88.4485 15.69926361  7201,6737.245,91.724,361.501,356.718,0.0
55655.0,STARLINK-5267,PAYLOAD,2023-04-01 20:38:45,15.69934332,0.0003472,70.0019,28.7773,270.395,89.6847,8.373e-05,9.871e-05,0.0,0 STARLINK-5267,1 55655U 23021AD  23091.86025298  .00009871  00000-0  83730-4 0  9999,2 55655  70.0019  28.7773 0003472 270.3950  89.6847 15.69934332  7612,6737.222,91.724,361.426,356.748,0.0
55655.0,STARLINK-5267,PAYLOAD,2023-04-02 05:49:16,15.69924357,0.0002491,70.0014,27.7018,286.1385,73.9536,1.4867e-05,1.576e-05,0.0,0 STARLINK-5267,1 55655U 23021AD  23092.24255723  .00001576  00000-0  14867-4 0  9999,2 55655  70.0014  27.7018 0002491 286.1385  73.9536 15.69924357  7364,6737.25,91.724,360.794,357.437,0.0
55655.0,STARLINK-5267,PAYLOAD,2023-04-02 21:06:48,15.69912961,0.0003482,70.0024,25.9113,258.2584,101.8221,-1.1104e-05,-1.547e-05,0.0,0 STARLINK-5267,1 55655U 23021AD  23092.87972829 -.00001547  00000-0 -11104-4 0  9992,2 55655  70.0024  25.9113 0003482 258.2584 101.8221 15.69912961  7464,6737.283,91.725,361.494,356.802,0.0
55655.0,STARLINK-5267,PAYLOAD,2023-04-03 04:45:34,15.69918248,0.0003008,70.0032,25.0173,260.23,99.8556,1.6978e-05,1.829e-05,0.0,0 STARLINK-5267,1 55655U 23021AD  23093.19831351  .00001829  00000-0  16978-4 0  9997,2 55655  70.0032  25.0173 0003008 260.2300  99.8556 15.69918248  7824,6737.268,91.725,361.159,357.106,0.0
55655.0,STARLINK-5267,PAYLOAD,2023-04-03 21:34:50,15.69945272,0.0003652,70.0033,23.0475,263.2114,96.8666,0.00010284,0.00012182,0.0,0 STARLINK-5267,1 55655U 23021AD  23093.89919052  .00012182  00000-0  10284-3 0  9996,2 55655  70.0033  23.0475 0003652 263.2114  96.8666 15.69945272  7937,6737.191,91.723,361.516,356.595,0.0
55655.0,STARLINK-5267,PAYLOAD,2023-04-04 05:13:35,15.69934008,0.0003187,70.0036,22.1528,252.5762,107.5085,4.6674e-05,5.405e-05,0.0,0 STARLINK-5267,1 55655U 23021AD  23094.21777413  .00005405  00000-0  46674-4 0  9999,2 55655  70.0036  22.1528 0003187 252.5762 107.5085 15.69934008  7673,6737.223,91.724,361.235,356.941,0.0
55655.0,STARLINK-5267,PAYLOAD,2023-04-04 06:45:21,15.69928889,0.0003035,70.002,21.9703,263.1986,96.8865,2.5532e-05,2.859e-05,0.0,0 STARLINK-5267,1 55655U 23021AD  23094.28149307  .00002859  00000-0  25532-4 0  9991,2 55655  70.0020  21.9703 0003035 263.1986  96.8865 15.69928889  7997,6737.237,91.724,361.147,357.058,0.0
55655.0,STARLINK-5267,PAYLOAD,2023-04-04 22:02:52,15.69922491,0.0003027,70.0031,20.1793,265.389,94.696,-1.3437e-06,-3.74e-06,0.0,0 STARLINK-5267,1 55655U 23021AD  23094.91866107 -.00000374  00000-0 -13437-5 0  9999,2 55655  70.0031  20.1793 0003027 265.3890  94.6960 15.69922491  8095,6737.256,91.724,361.16,357.081,0.0
55655.0,STARLINK-5267,PAYLOAD,2023-04-05 04:09:52,15.69929437,0.0002912,70.0024,19.464,261.428,98.6585,2.4985e-05,2.793e-05,0.0,0 STARLINK-5267,1 55655U 23021AD  23095.17352640  .00002793  00000-0  24985-4 0  9994,2 55655  70.0024  19.4640 0002912 261.4280  98.6585 15.69929437  7825,6737.236,91.724,361.063,357.139,0.0
55655.0,STARLINK-5267,PAYLOAD,2023-04-05 20:59:08,15.69926732,0.0003301,70.0028,17.4959,235.8626,124.2257,2.0009e-05,2.194e-05,0.0,0 STARLINK-5267,1 55655U 23021AD  23095.87440824  .00002194  00000-0  20009-4 0  9991,2 55655  70.0028  17.4959 0003301 235.8626 124.2257 15.69926732  8246,6737.244,91.724,361.333,356.885,0.0
55655.0,STARLINK-5267,PAYLOAD,2023-04-06 06:09:39,15.69936646,0.0003272,70.0039,16.4199,253.3639,106.7197,4.339e-05,5.01e-05,0.0,0 STARLINK-5267,1 55655U 23021AD  23096.25670666  .00005010  00000-0  43390-4 0  9991,2 55655  70.0039  16.4199 0003272 253.3639 106.7197 15.69936646  7993,6737.215,91.723,361.285,356.876,0.0
55655.0,STARLINK-5267,PAYLOAD,2023-04-06 18:23:41,15.6992121,0.000295,70.0023,14.9842,266.7851,93.3007,6.022e-06,5.12e-06,0.0,0 STARLINK-5267,1 55655U 23021AD  23096.76644805  .00000512  00000-0  60220-5 0  9997,2 55655  70.0023  14.9842 0002950 266.7851  93.3007 15.69921210  8072,6737.259,91.724,361.112,357.137,0.0
55655.0,STARLINK-5267,PAYLOAD,2023-04-07 03:34:11,15.69937556,0.0002925,70.0026,13.9109,250.1909,109.8972,5.517e-05,6.43e-05,0.0,0 STARLINK-5267,1 55655U 23021AD  23097.14874166  .00006430  00000-0  55170-4 0  9997,2 55655  70.0026  13.9109 0002925 250.1909 109.8972 15.69937556  8134,6737.213,91.723,361.048,357.107,0.0
55655.0,STARLINK-5267,PAYLOAD,2023-04-07 17:19:57,15.69931724,0.0002733,70.0027,12.2979,243.2882,116.8034,2.9936e-05,3.389e-05,0.0,0 STARLINK-5267,1 55655U 23021AD  23097.72219275  .00003389  00000-0  29936-4 0  9996,2 55655  70.0027  12.2979 0002733 243.2882 116.8034 15.69931724  8220,6737.229,91.724,360.936,357.253,0.0
55655.0,STARLINK-5267,PAYLOAD,2023-04-08 04:02:14,15.69910445,0.0002806,70.0017,11.0438,262.929,97.1587,-2.2188e-05,-2.877e-05,0.0,0 STARLINK-5267,1 55655U 23021AD  23098.16821829 -.00002877  00000-0 -22188-4 0  9994,2 55655  70.0017  11.0438 0002806 262.9290  97.1587 15.69910445  8296,6737.29,91.725,361.046,357.265,0.0
55655.0,STARLINK-5267,PAYLOAD,2023-04-08 13:12:44,15.69923034,0.0002916,70.0009,9.9694,274.1619,85.9243,-2.9172e-06,-5.63e-06,0.0,0 STARLINK-5267,1 55655U 23021AD  23098.55051438 -.00000563  00000-0 -29172-5 0  9999,2 55655  70.0009   9.9694 0002916 274.1619  85.9243 15.69923034  8358,6737.254,91.724,361.084,357.155,0.0
55655.0,STARLINK-5267,PAYLOAD,2023-04-09 01:26:44,15.69933449,0.0003139,70.0015,8.5363,263.429,96.6548,1.931e-05,2.111e-05,0.0,0 STARLINK-5267,1 55655U 23021AD  23099.06024270  .00002111  00000-0  19310-4 0  9991,2 55655  70.0015   8.5363 0003139 263.4290  96.6548 15.69933449  8434,6737.224,91.724,361.204,356.975,0.0
55655.0,STARLINK-5267,PAYLOAD,2023-04-09 18:16:01,15.69921915,0.000293,70.0019,6.5663,260.1117,99.9748,1.5192e-05,1.614e-05,0.0,0 STARLINK-5267,1 55655U 23021AD  23099.76113229  .00001614  00000-0  15192-4 0  9992,2 55655  70.0019   6.5663 0002930 260.1117  99.9748 15.69921915  8858,6737.257,91.724,361.096,357.148,0.0
55655.0,STARLINK-5267,PAYLOAD,2023-04-10 00:23:02,15.69929601,0.0003091,70.0014,5.8493,262.721,97.3634,2.7694e-05,3.119e-05,0.0,0 STARLINK-5267,1 55655U 23021AD  23100.01599558  .00003119  00000-0  27694-4 0  9998,2 55655  70.0014   5.8493 0003091 262.7210  97.3634 15.69929601  8583,6737.235,91.724,361.183,357.018,0.0
55655.0,STARLINK-5267,PAYLOAD,2023-04-10 04:58:17,15.69928454,0.0003387,70.0001,5.3106,268.7504,91.3304,2.8621e-05,3.231e-05,0.0,0 STARLINK-5267,1 55655U 23021AD  23100.20714637  .00003231  00000-0  28621-4 0  9992,2 55655  70.0001   5.3106 0003387 268.7504  91.3304 15.69928454  8926,6737.239,91.724,361.386,356.822,0.0
55655.0,STARLINK-5267,PAYLOAD,2023-04-11 03:54:34,15.69925617,0.0003182,70.0016,2.6243,269.9536,90.1295,1.4811e-05,1.569e-05,0.0,0 STARLINK-5267,1 55655U 23021AD  23101.16289894  .00001569  00000-0  14811-4 0  9998,2 55655  70.0016   2.6243 0003182 269.9536  90.1295 15.69925617  8761,6737.247,91.724,361.256,356.968,0.0
55655.0,STARLINK-5267,PAYLOAD,2023-04-12 02:50:51,15.69921195,0.0003109,70.0004,359.9365,286.5176,73.5678,-3.4718e-07,-2.54e-06,0.0,0 STARLINK-5267,1 55655U 23021AD  23102.11865021 -.00000254  00000-0 -34718-6 0  9998,2 55655  70.0004 359.9365 0003109 286.5176  73.5678 15.69921195  8919,6737.259,91.724,361.219,357.03,0.0
55655.0,STARLINK-5267,PAYLOAD,2023-04-13 03:18:53,15.69929062,0.0002643,70.0027,357.0717,290.4736,69.6176,1.8383e-05,1.999e-05,0.0,0 STARLINK-5267,1 55655U 23021AD  23103.13811930  .00001999  00000-0  18383-4 0  9994,2 55655  70.0027 357.0717 0002643 290.4736  69.6176 15.69929062  9384,6737.237,91.724,360.883,357.321,0.0
55655.0,STARLINK-5267,PAYLOAD,2023-04-14 12:57:26,15.6992378,0.0002815,70.0025,353.129,272.1891,87.8982,2.3917e-06,7.5e-07,0.0,0 STARLINK-5267,1 55655U 23021AD  23104.53988691  .00000075  00000-0  23917-5 0  9992,2 55655  70.0025 353.1290 0002815 272.1891  87.8982 15.69923780  9608,6737.252,91.724,361.014,357.221,0.0
55655.0,STARLINK-5267,PAYLOAD,2023-04-14 16:00:56,15.69919606,0.0003472,70.0009,352.7725,260.9589,99.1214,-3.3158e-06,-6.11e-06,0.0,0 STARLINK-5267,1 55655U 23021AD  23104.66732119 -.00000611  00000-0 -33158-5 0  9994,2 55655  70.0009 352.7725 0003472 260.9589  99.1214 15.69919606  9311,6737.264,91.724,361.468,356.79,0.0
55655.0,STARLINK-5267,PAYLOAD,2023-04-15 02:43:12,15.69906403,0.0003069,70.001,351.5171,262.4517,97.633,-5.4344e-05,-6.736e-05,0.0,0 STARLINK-5267,1 55655U 23021AD  23105.11333771 -.00006736  00000-0 -54344-4 0  9999,2 55655  70.0010 351.5171 0003069 262.4517  97.6330 15.69906403  9699,6737.302,91.725,361.234,357.099,0.0
